ERS-2                   
1 23560U 95021A   24052.03578383  .06142585  31851-5  10543-2 0  9992
2 23560  98.4943  70.9757 0007569 280.8676 139.8749 16.32985585547980
